[
    {
        "Altitude(m)": 563819.6865269642,
        "Argument of Periapsis(deg)": 0.033114955553567506,
        "Eccentricity": 0.0,
        "Inclination(deg)": 53.0,
        "Latitude(deg)": -33.35956005380687,
        "Longitude(deg)": 75.57684385904625,
        "Mean Anomaly(deg)": -136.81463566211207,
        "RAAN(deg)": 329.95071684264,
        "Satellite Name": "Starlink Shell 1 1462",
        "Satellite Number": 1462,
        "Semi-Major Axis(m)": 6931778.249405717,
        "Time(s)": 950
    },
    {
        "Altitude(m)": 563993.9814428025,
        "Argument of Periapsis(deg)": 0.03346353403307874,
        "Eccentricity": 0.0,
        "Inclination(deg)": 53.0,
        "Latitude(deg)": -33.79448286522472,
        "Longitude(deg)": 76.07588213962939,
        "Mean Anomaly(deg)": -136.18780445855532,
        "RAAN(deg)": 329.9501980725626,
        "Satellite Name": "Starlink Shell 1 1462",
        "Satellite Number": 1462,
        "Semi-Major Axis(m)": 6931778.249405717,
        "Time(s)": 960
    },
    {
        "Altitude(m)": 564167.873080665,
        "Argument of Periapsis(deg)": 0.03381211251258998,
        "Eccentricity": 0.0,
        "Inclination(deg)": 53.0,
        "Latitude(deg)": -34.22697299214731,
        "Longitude(deg)": 76.58037736434282,
        "Mean Anomaly(deg)": -135.56097325499866,
        "RAAN(deg)": 329.9496793024851,
        "Satellite Name": "Starlink Shell 1 1462",
        "Satellite Number": 1462,
        "Semi-Major Axis(m)": 6931778.249405717,
        "Time(s)": 970
    },
    {
        "Altitude(m)": 564341.2950843946,
        "Argument of Periapsis(deg)": 0.034160690992101214,
        "Eccentricity": 0.0,
        "Inclination(deg)": 53.0,
        "Latitude(deg)": -34.65696719257787,
        "Longitude(deg)": 77.09044396816076,
        "Mean Anomaly(deg)": -134.93414205144188,
        "RAAN(deg)": 329.94916053240763,
        "Satellite Name": "Starlink Shell 1 1462",
        "Satellite Number": 1462,
        "Semi-Major Axis(m)": 6931778.249405717,
        "Time(s)": 980
    },
    {
        "Altitude(m)": 564514.181161629,
        "Argument of Periapsis(deg)": 0.034509269471612446,
        "Eccentricity": 0.0,
        "Inclination(deg)": 53.0,
        "Latitude(deg)": -35.08440076813505,
        "Longitude(deg)": 77.60619778442002,
        "Mean Anomaly(deg)": -134.30731084788516,
        "RAAN(deg)": 329.9486417623302,
        "Satellite Name": "Starlink Shell 1 1462",
        "Satellite Number": 1462,
        "Semi-Major Axis(m)": 6931778.249405717,
        "Time(s)": 990
    }
]